IRIDIUM 26              
1 24903U 97043A   25227.36787831  .00000325  00000+0  10278-3 0  9992
2 24903  86.3911  85.7521 0001946  89.1855 270.9566 14.37182080465242
IRIDIUM 22              
1 24907U 97043E   25228.32224733  .00000297  00000+0  95568-4 0  9994
2 24907  86.3916  88.9444 0002125  90.1933 269.9508 14.35991198465395
DUMMY MASS 1            
1 24925U 97048A   25227.90490692  .00000327  00000+0  33388-4 0  9997
2 24925  86.3332 107.7212 0004578 308.1117  51.9694 14.87027620514005
DUMMY MASS 2            
1 24926U 97048B   25228.21352689  .00000314  00000+0  32107-4 0  9990
2 24926  86.3335 109.1974 0005651 320.3322  39.7489 14.86779709514060
IRIDIUM 29              
1 24944U 97051A   25227.41814722  .00000340  00000+0  10920-3 0  9993
2 24944  86.3963 119.0628 0002366  85.6895 274.4573 14.36508584461776
IRIDIUM 33              
1 24946U 97051C   25228.23216268  .00000243  00000+0  78754-4 0  9999
2 24946  86.3876 117.9865 0005935 234.3912 125.6732 14.34924238461364
IRIDIUM 28              
1 24948U 97051E   25227.42385061  .00000278  00000+0  86595-4 0  9999
2 24948  86.3963 116.5418 0001663  90.5911 269.5477 14.37420252462351
IRIDIUM 36              
1 24967U 97056C   25228.28273950  .00000288  00000+0  89364-4 0  9991
2 24967  86.4023 147.7772 0002162  92.2574 267.8871 14.37648262460853
